{
  "type": "FeatureCollection",
  "features": [
    {
      "type": "Feature",
      "id": "BASIN-BGS",
      "properties": {
        "id": "BASIN-BGS",
        "name": "Daerah Aliran Sungai (DAS) Bengawan Solo",
        "area_km2": 16100,
        "perimeter_km": 720,
        "classification": "Strategis Nasional"
      },
      "geometry": {
        "type": "Polygon",
        "coordinates": [
          [
            [
              110.88,
              -8.15
            ],
            [
              110.75,
              -7.95
            ],
            [
              110.6,
              -7.82
            ],
            [
              110.48,
              -7.68
            ],
            [
              110.45,
              -7.55
            ],
            [
              110.55,
              -7.42
            ],
            [
              110.72,
              -7.3
            ],
            [
              110.95,
              -7.18
            ],
            [
              111.15,
              -7.08
            ],
            [
              111.35,
              -6.98
            ],
            [
              111.6,
              -6.85
            ],
            [
              111.85,
              -6.82
            ],
            [
              112.1,
              -6.8
            ],
            [
              112.35,
              -6.82
            ],
            [
              112.58,
              -6.85
            ],
            [
              112.65,
              -6.95
            ],
            [
              112.6,
              -7.1
            ],
            [
              112.45,
              -7.22
            ],
            [
              112.25,
              -7.3
            ],
            [
              111.95,
              -7.45
            ],
            [
              111.8,
              -7.65
            ],
            [
              111.72,
              -7.85
            ],
            [
              111.55,
              -8.02
            ],
            [
              111.35,
              -8.12
            ],
            [
              111.15,
              -8.18
            ],
            [
              110.88,
              -8.15
            ]
          ]
        ]
      }
    }
  ]
}