{
  "type": "FeatureCollection",
  "features": [
    {
      "type": "Feature",
      "properties": {
        "name": "Pulau Jawa",
        "island_group": "Sunda Besar",
        "country": "Indonesia"
      },
      "geometry": {
        "type": "Polygon",
        "coordinates": [
          [
            [
              105.95,
              -5.92
            ],
            [
              106.65,
              -5.95
            ],
            [
              107.05,
              -6.15
            ],
            [
              107.75,
              -6.22
            ],
            [
              108.55,
              -6.45
            ],
            [
              109.15,
              -6.85
            ],
            [
              109.65,
              -6.88
            ],
            [
              110.45,
              -6.95
            ],
            [
              110.85,
              -6.4
            ],
            [
              111.45,
              -6.65
            ],
            [
              111.95,
              -6.85
            ],
            [
              112.552,
              -6.884
            ],
            [
              112.95,
              -7.02
            ],
            [
              113.85,
              -6.9
            ],
            [
              114.45,
              -7.7
            ],
            [
              114.62,
              -8.65
            ],
            [
              114.25,
              -8.75
            ],
            [
              113.85,
              -8.35
            ],
            [
              113.15,
              -8.3
            ],
            [
              112.55,
              -8.35
            ],
            [
              111.85,
              -8.28
            ],
            [
              111.1,
              -8.25
            ],
            [
              110.55,
              -8.15
            ],
            [
              109.95,
              -7.78
            ],
            [
              109.25,
              -7.72
            ],
            [
              108.65,
              -7.7
            ],
            [
              108.25,
              -7.5
            ],
            [
              107.45,
              -7.25
            ],
            [
              106.85,
              -7.05
            ],
            [
              106.25,
              -6.95
            ],
            [
              105.25,
              -6.75
            ],
            [
              105.15,
              -6.25
            ],
            [
              105.95,
              -5.92
            ]
          ]
        ]
      }
    }
  ]
}