{
  "type": "FeatureCollection",
  "features": [
    {
      "type": "Feature",
      "id": "EDGE-BS-022-BS-001",
      "properties": {
        "id": "EDGE-BS-022-BS-001",
        "source": "BS-022",
        "target": "BS-001",
        "sourceName": "Tirtomoyo",
        "targetName": "Wonogiri Dam",
        "river": "Kali Tirtomoyo",
        "distanceKm": 18.5,
        "travelTimeHours": 4.2,
        "residualCorrelation": 0.74,
        "flowDirection": "downstream",
        "relationship": "downstream",
        "primary": true
      },
      "geometry": {
        "type": "LineString",
        "coordinates": [
          [
            111.052,
            -7.931
          ],
          [
            110.99,
            -7.88
          ],
          [
            110.931,
            -7.832
          ]
        ]
      }
    },
    {
      "type": "Feature",
      "id": "EDGE-BS-021-BS-001",
      "properties": {
        "id": "EDGE-BS-021-BS-001",
        "source": "BS-021",
        "target": "BS-001",
        "sourceName": "Keduang",
        "targetName": "Wonogiri Dam",
        "river": "Kali Keduang",
        "distanceKm": 14.2,
        "travelTimeHours": 3.1,
        "residualCorrelation": 0.82,
        "flowDirection": "downstream",
        "relationship": "downstream",
        "primary": true
      },
      "geometry": {
        "type": "LineString",
        "coordinates": [
          [
            111.004,
            -7.802
          ],
          [
            110.95,
            -7.82
          ],
          [
            110.931,
            -7.832
          ]
        ]
      }
    },
    {
      "type": "Feature",
      "id": "EDGE-BS-001-BS-002",
      "properties": {
        "id": "EDGE-BS-001-BS-002",
        "source": "BS-001",
        "target": "BS-002",
        "sourceName": "Wonogiri Dam",
        "targetName": "Nguter",
        "river": "Bengawan Solo Hulu",
        "distanceKm": 16.8,
        "travelTimeHours": 3.8,
        "residualCorrelation": 0.88,
        "flowDirection": "downstream",
        "relationship": "downstream",
        "primary": true
      },
      "geometry": {
        "type": "LineString",
        "coordinates": [
          [
            110.931,
            -7.832
          ],
          [
            110.92,
            -7.81
          ],
          [
            110.905,
            -7.78
          ],
          [
            110.89,
            -7.75
          ],
          [
            110.879,
            -7.722
          ]
        ]
      }
    },
    {
      "type": "Feature",
      "id": "EDGE-BS-002-BS-003",
      "properties": {
        "id": "EDGE-BS-002-BS-003",
        "source": "BS-002",
        "target": "BS-003",
        "sourceName": "Nguter",
        "targetName": "Colo Weir",
        "river": "Bengawan Solo Hulu",
        "distanceKm": 5.4,
        "travelTimeHours": 1.2,
        "residualCorrelation": 0.94,
        "flowDirection": "downstream",
        "relationship": "downstream",
        "primary": true
      },
      "geometry": {
        "type": "LineString",
        "coordinates": [
          [
            110.879,
            -7.722
          ],
          [
            110.865,
            -7.71
          ],
          [
            110.851,
            -7.699
          ]
        ]
      }
    },
    {
      "type": "Feature",
      "id": "EDGE-BS-003-BS-004",
      "properties": {
        "id": "EDGE-BS-003-BS-004",
        "source": "BS-003",
        "target": "BS-004",
        "sourceName": "Colo Weir",
        "targetName": "Jurug",
        "river": "Bengawan Solo Hulu",
        "distanceKm": 22.1,
        "travelTimeHours": 4.9,
        "residualCorrelation": 0.86,
        "flowDirection": "downstream",
        "relationship": "downstream",
        "primary": true
      },
      "geometry": {
        "type": "LineString",
        "coordinates": [
          [
            110.851,
            -7.699
          ],
          [
            110.845,
            -7.66
          ],
          [
            110.85,
            -7.62
          ],
          [
            110.855,
            -7.59
          ],
          [
            110.858,
            -7.566
          ]
        ]
      }
    },
    {
      "type": "Feature",
      "id": "EDGE-BS-005-BS-004",
      "properties": {
        "id": "EDGE-BS-005-BS-004",
        "source": "BS-005",
        "target": "BS-004",
        "sourceName": "Dengkeng",
        "targetName": "Jurug",
        "river": "Kali Dengkeng",
        "distanceKm": 24.6,
        "travelTimeHours": 5.2,
        "residualCorrelation": 0.76,
        "flowDirection": "downstream",
        "relationship": "downstream",
        "primary": true
      },
      "geometry": {
        "type": "LineString",
        "coordinates": [
          [
            110.722,
            -7.681
          ],
          [
            110.78,
            -7.64
          ],
          [
            110.82,
            -7.6
          ],
          [
            110.858,
            -7.566
          ]
        ]
      }
    },
    {
      "type": "Feature",
      "id": "EDGE-BS-020-BS-004",
      "properties": {
        "id": "EDGE-BS-020-BS-004",
        "source": "BS-020",
        "target": "BS-004",
        "sourceName": "Samin",
        "targetName": "Jurug",
        "river": "Kali Samin",
        "distanceKm": 15.3,
        "travelTimeHours": 3.4,
        "residualCorrelation": 0.81,
        "flowDirection": "downstream",
        "relationship": "downstream",
        "primary": true
      },
      "geometry": {
        "type": "LineString",
        "coordinates": [
          [
            110.951,
            -7.621
          ],
          [
            110.89,
            -7.59
          ],
          [
            110.858,
            -7.566
          ]
        ]
      }
    },
    {
      "type": "Feature",
      "id": "EDGE-BS-004-BS-007",
      "properties": {
        "id": "EDGE-BS-004-BS-007",
        "source": "BS-004",
        "target": "BS-007",
        "sourceName": "Jurug",
        "targetName": "Sragen",
        "river": "Bengawan Solo",
        "distanceKm": 28.7,
        "travelTimeHours": 6.1,
        "residualCorrelation": 0.89,
        "flowDirection": "downstream",
        "relationship": "downstream",
        "primary": true
      },
      "geometry": {
        "type": "LineString",
        "coordinates": [
          [
            110.858,
            -7.566
          ],
          [
            110.88,
            -7.53
          ],
          [
            110.92,
            -7.495
          ],
          [
            110.97,
            -7.46
          ],
          [
            111.021,
            -7.428
          ]
        ]
      }
    },
    {
      "type": "Feature",
      "id": "EDGE-BS-006-BS-007",
      "properties": {
        "id": "EDGE-BS-006-BS-007",
        "source": "BS-006",
        "target": "BS-007",
        "sourceName": "Pepe Hilir",
        "targetName": "Sragen",
        "river": "Kali Pepe",
        "distanceKm": 26.3,
        "travelTimeHours": 5.8,
        "residualCorrelation": 0.78,
        "flowDirection": "downstream",
        "relationship": "downstream",
        "primary": true
      },
      "geometry": {
        "type": "LineString",
        "coordinates": [
          [
            110.831,
            -7.552
          ],
          [
            111.021,
            -7.428
          ]
        ]
      }
    },
    {
      "type": "Feature",
      "id": "EDGE-BS-007-BS-025",
      "properties": {
        "id": "EDGE-BS-007-BS-025",
        "source": "BS-007",
        "target": "BS-025",
        "sourceName": "Sragen",
        "targetName": "Widodaren",
        "river": "Bengawan Solo",
        "distanceKm": 27.4,
        "travelTimeHours": 5.6,
        "residualCorrelation": 0.87,
        "flowDirection": "downstream",
        "relationship": "downstream",
        "primary": true
      },
      "geometry": {
        "type": "LineString",
        "coordinates": [
          [
            111.021,
            -7.428
          ],
          [
            111.08,
            -7.405
          ],
          [
            111.14,
            -7.39
          ],
          [
            111.2,
            -7.385
          ],
          [
            111.252,
            -7.382
          ]
        ]
      }
    },
    {
      "type": "Feature",
      "id": "EDGE-BS-025-BS-011",
      "properties": {
        "id": "EDGE-BS-025-BS-011",
        "source": "BS-025",
        "target": "BS-011",
        "sourceName": "Widodaren",
        "targetName": "Ngawi Confluence",
        "river": "Bengawan Solo",
        "distanceKm": 24.8,
        "travelTimeHours": 5.1,
        "residualCorrelation": 0.85,
        "flowDirection": "downstream",
        "relationship": "downstream",
        "primary": true
      },
      "geometry": {
        "type": "LineString",
        "coordinates": [
          [
            111.252,
            -7.382
          ],
          [
            111.31,
            -7.385
          ],
          [
            111.37,
            -7.395
          ],
          [
            111.41,
            -7.4
          ],
          [
            111.447,
            -7.402
          ]
        ]
      }
    },
    {
      "type": "Feature",
      "id": "EDGE-BS-008-BS-009",
      "properties": {
        "id": "EDGE-BS-008-BS-009",
        "source": "BS-008",
        "target": "BS-009",
        "sourceName": "Badegan",
        "targetName": "Ponorogo",
        "river": "Kali Madiun Hulu",
        "distanceKm": 12.4,
        "travelTimeHours": 2.8,
        "residualCorrelation": 0.86,
        "flowDirection": "downstream",
        "relationship": "downstream",
        "primary": true
      },
      "geometry": {
        "type": "LineString",
        "coordinates": [
          [
            111.383,
            -7.869
          ],
          [
            111.41,
            -7.87
          ],
          [
            111.44,
            -7.872
          ],
          [
            111.468,
            -7.867
          ]
        ]
      }
    },
    {
      "type": "Feature",
      "id": "EDGE-BS-009-BS-010",
      "properties": {
        "id": "EDGE-BS-009-BS-010",
        "source": "BS-009",
        "target": "BS-010",
        "sourceName": "Ponorogo",
        "targetName": "Madiun",
        "river": "Kali Madiun",
        "distanceKm": 31.2,
        "travelTimeHours": 6.8,
        "residualCorrelation": 0.84,
        "flowDirection": "downstream",
        "relationship": "downstream",
        "primary": true
      },
      "geometry": {
        "type": "LineString",
        "coordinates": [
          [
            111.468,
            -7.867
          ],
          [
            111.48,
            -7.82
          ],
          [
            111.495,
            -7.76
          ],
          [
            111.51,
            -7.7
          ],
          [
            111.523,
            -7.628
          ]
        ]
      }
    },
    {
      "type": "Feature",
      "id": "EDGE-BS-013-BS-012",
      "properties": {
        "id": "EDGE-BS-013-BS-012",
        "source": "BS-013",
        "target": "BS-012",
        "sourceName": "Gandong Weir",
        "targetName": "Kwadungan",
        "river": "Kali Gandong",
        "distanceKm": 16.5,
        "travelTimeHours": 3.6,
        "residualCorrelation": 0.79,
        "flowDirection": "downstream",
        "relationship": "downstream",
        "primary": true
      },
      "geometry": {
        "type": "LineString",
        "coordinates": [
          [
            111.398,
            -7.602
          ],
          [
            111.44,
            -7.56
          ],
          [
            111.482,
            -7.521
          ]
        ]
      }
    },
    {
      "type": "Feature",
      "id": "EDGE-BS-010-BS-012",
      "properties": {
        "id": "EDGE-BS-010-BS-012",
        "source": "BS-010",
        "target": "BS-012",
        "sourceName": "Madiun",
        "targetName": "Kwadungan",
        "river": "Kali Madiun",
        "distanceKm": 18.2,
        "travelTimeHours": 4,
        "residualCorrelation": 0.91,
        "flowDirection": "downstream",
        "relationship": "downstream",
        "primary": true
      },
      "geometry": {
        "type": "LineString",
        "coordinates": [
          [
            111.523,
            -7.628
          ],
          [
            111.51,
            -7.575
          ],
          [
            111.482,
            -7.521
          ]
        ]
      }
    },
    {
      "type": "Feature",
      "id": "EDGE-BS-012-BS-011",
      "properties": {
        "id": "EDGE-BS-012-BS-011",
        "source": "BS-012",
        "target": "BS-011",
        "sourceName": "Kwadungan",
        "targetName": "Ngawi Confluence",
        "river": "Kali Madiun",
        "distanceKm": 22.7,
        "travelTimeHours": 4.8,
        "residualCorrelation": 0.88,
        "flowDirection": "downstream",
        "relationship": "downstream",
        "primary": true
      },
      "geometry": {
        "type": "LineString",
        "coordinates": [
          [
            111.482,
            -7.521
          ],
          [
            111.465,
            -7.46
          ],
          [
            111.447,
            -7.402
          ]
        ]
      }
    },
    {
      "type": "Feature",
      "id": "EDGE-BS-011-BS-014",
      "properties": {
        "id": "EDGE-BS-011-BS-014",
        "source": "BS-011",
        "target": "BS-014",
        "sourceName": "Ngawi Confluence",
        "targetName": "Cepu",
        "river": "Bengawan Solo",
        "distanceKm": 38.5,
        "travelTimeHours": 8.2,
        "residualCorrelation": 0.83,
        "flowDirection": "downstream",
        "relationship": "downstream",
        "primary": true
      },
      "geometry": {
        "type": "LineString",
        "coordinates": [
          [
            111.447,
            -7.402
          ],
          [
            111.47,
            -7.36
          ],
          [
            111.5,
            -7.31
          ],
          [
            111.53,
            -7.26
          ],
          [
            111.56,
            -7.21
          ],
          [
            111.592,
            -7.152
          ]
        ]
      }
    },
    {
      "type": "Feature",
      "id": "EDGE-BS-014-BS-024",
      "properties": {
        "id": "EDGE-BS-014-BS-024",
        "source": "BS-014",
        "target": "BS-024",
        "sourceName": "Cepu",
        "targetName": "Padangan",
        "river": "Bengawan Solo",
        "distanceKm": 17.6,
        "travelTimeHours": 3.9,
        "residualCorrelation": 0.92,
        "flowDirection": "downstream",
        "relationship": "downstream",
        "primary": true
      },
      "geometry": {
        "type": "LineString",
        "coordinates": [
          [
            111.592,
            -7.152
          ],
          [
            111.64,
            -7.17
          ],
          [
            111.702,
            -7.201
          ]
        ]
      }
    },
    {
      "type": "Feature",
      "id": "EDGE-BS-024-BS-015",
      "properties": {
        "id": "EDGE-BS-024-BS-015",
        "source": "BS-024",
        "target": "BS-015",
        "sourceName": "Padangan",
        "targetName": "Bojonegoro Barrage",
        "river": "Bengawan Solo",
        "distanceKm": 26.8,
        "travelTimeHours": 5.7,
        "residualCorrelation": 0.89,
        "flowDirection": "downstream",
        "relationship": "downstream",
        "primary": true
      },
      "geometry": {
        "type": "LineString",
        "coordinates": [
          [
            111.702,
            -7.201
          ],
          [
            111.75,
            -7.185
          ],
          [
            111.81,
            -7.165
          ],
          [
            111.882,
            -7.151
          ]
        ]
      }
    },
    {
      "type": "Feature",
      "id": "EDGE-BS-023-BS-015",
      "properties": {
        "id": "EDGE-BS-023-BS-015",
        "source": "BS-023",
        "target": "BS-015",
        "sourceName": "Kening",
        "targetName": "Bojonegoro Barrage",
        "river": "Kali Kening",
        "distanceKm": 28.1,
        "travelTimeHours": 6.2,
        "residualCorrelation": 0.77,
        "flowDirection": "downstream",
        "relationship": "downstream",
        "primary": true
      },
      "geometry": {
        "type": "LineString",
        "coordinates": [
          [
            111.852,
            -6.952
          ],
          [
            111.865,
            -7.02
          ],
          [
            111.875,
            -7.085
          ],
          [
            111.882,
            -7.151
          ]
        ]
      }
    },
    {
      "type": "Feature",
      "id": "EDGE-BS-015-BS-016",
      "properties": {
        "id": "EDGE-BS-015-BS-016",
        "source": "BS-015",
        "target": "BS-016",
        "sourceName": "Bojonegoro Barrage",
        "targetName": "Babat Barrage",
        "river": "Bengawan Solo",
        "distanceKm": 34.2,
        "travelTimeHours": 7.4,
        "residualCorrelation": 0.86,
        "flowDirection": "downstream",
        "relationship": "downstream",
        "primary": true
      },
      "geometry": {
        "type": "LineString",
        "coordinates": [
          [
            111.882,
            -7.151
          ],
          [
            111.95,
            -7.14
          ],
          [
            112.02,
            -7.135
          ],
          [
            112.09,
            -7.125
          ],
          [
            112.162,
            -7.112
          ]
        ]
      }
    },
    {
      "type": "Feature",
      "id": "EDGE-BS-016-BS-017",
      "properties": {
        "id": "EDGE-BS-016-BS-017",
        "source": "BS-016",
        "target": "BS-017",
        "sourceName": "Babat Barrage",
        "targetName": "Karanggeneng",
        "river": "Bengawan Solo Hilir",
        "distanceKm": 21.3,
        "travelTimeHours": 4.8,
        "residualCorrelation": 0.9,
        "flowDirection": "downstream",
        "relationship": "downstream",
        "primary": true
      },
      "geometry": {
        "type": "LineString",
        "coordinates": [
          [
            112.162,
            -7.112
          ],
          [
            112.21,
            -7.08
          ],
          [
            112.25,
            -7.05
          ],
          [
            112.302,
            -7.021
          ]
        ]
      }
    },
    {
      "type": "Feature",
      "id": "EDGE-BS-017-BS-018",
      "properties": {
        "id": "EDGE-BS-017-BS-018",
        "source": "BS-017",
        "target": "BS-018",
        "sourceName": "Karanggeneng",
        "targetName": "Sembayat Barrage",
        "river": "Bengawan Solo Hilir",
        "distanceKm": 27.5,
        "travelTimeHours": 6,
        "residualCorrelation": 0.87,
        "flowDirection": "downstream",
        "relationship": "downstream",
        "primary": true
      },
      "geometry": {
        "type": "LineString",
        "coordinates": [
          [
            112.302,
            -7.021
          ],
          [
            112.36,
            -7.005
          ],
          [
            112.43,
            -6.995
          ],
          [
            112.518,
            -6.982
          ]
        ]
      }
    },
    {
      "type": "Feature",
      "id": "EDGE-BS-018-BS-019",
      "properties": {
        "id": "EDGE-BS-018-BS-019",
        "source": "BS-018",
        "target": "BS-019",
        "sourceName": "Sembayat Barrage",
        "targetName": "Ujung Pangkah Estuary",
        "river": "Bengawan Solo Hilir",
        "distanceKm": 15.6,
        "travelTimeHours": 3.5,
        "residualCorrelation": 0.93,
        "flowDirection": "downstream",
        "relationship": "downstream",
        "primary": true
      },
      "geometry": {
        "type": "LineString",
        "coordinates": [
          [
            112.518,
            -6.982
          ],
          [
            112.535,
            -6.95
          ],
          [
            112.545,
            -6.915
          ],
          [
            112.552,
            -6.884
          ]
        ]
      }
    }
  ]
}