{
  "type": "FeatureCollection",
  "features": [
    {
      "type": "Feature",
      "id": "PROV-JT",
      "properties": {
        "id": "PROV-JT",
        "name": "Jawa Tengah",
        "code": "33",
        "capital": "Semarang"
      },
      "geometry": {
        "type": "LineString",
        "coordinates": [
          [
            111.45,
            -6.8
          ],
          [
            111.48,
            -7
          ],
          [
            111.55,
            -7.15
          ],
          [
            111.58,
            -7.3
          ],
          [
            111.447,
            -7.402
          ],
          [
            111.35,
            -7.5
          ],
          [
            111.25,
            -7.6
          ],
          [
            111.18,
            -7.8
          ],
          [
            111.15,
            -8
          ],
          [
            111.12,
            -8.2
          ]
        ]
      }
    },
    {
      "type": "Feature",
      "id": "PROV-JI",
      "properties": {
        "id": "PROV-JI",
        "name": "Jawa Timur",
        "code": "35",
        "capital": "Surabaya"
      },
      "geometry": {
        "type": "LineString",
        "coordinates": [
          [
            111.45,
            -6.8
          ],
          [
            111.48,
            -7
          ],
          [
            111.55,
            -7.15
          ],
          [
            111.58,
            -7.3
          ],
          [
            111.447,
            -7.402
          ],
          [
            111.35,
            -7.5
          ],
          [
            111.25,
            -7.6
          ],
          [
            111.18,
            -7.8
          ],
          [
            111.15,
            -8
          ],
          [
            111.12,
            -8.2
          ]
        ]
      }
    }
  ]
}